STARLINK-1570           
1 46059U 20055AJ  26042.91350730 -.00000209  00000+0  48376-5 0  9992
2 46059  53.0559 232.3341 0001422  86.1238 273.9914 15.06404958305104
STARLINK-1572           
1 46060U 20055AK  26042.84346801  .00002136  00000+0  16224-3 0  9995
2 46060  53.0557 232.6454 0001372  92.1038 268.0109 15.06407943305109
STARLINK-1573           
1 46061U 20055AL  26042.90614450  .00000413  00000+0  46605-4 0  9994
2 46061  53.0542 232.4028 0001398  83.1285 276.9863 15.06401105305144
STARLINK-1577           
1 46063U 20055AN  26042.93192006  .00002133  00000+0  16199-3 0  9992
2 46063  53.0558 232.2466 0001504  79.8627 280.2532 15.06414367305143
STARLINK-1583           
1 46064U 20055AP  26042.89876590  .00000676  00000+0  64275-4 0  9994
2 46064  53.0559 232.3972 0001415  91.2597 268.8554 15.06400005305143
STARLINK-1525           
1 46066U 20055AR  26042.76423061  .00001831  00000+0  14183-3 0  9999
2 46066  53.0558 213.0011 0001290  96.3119 263.8018 15.06384485305391
STARLINK-1536           
1 46070U 20055AV  26042.74209643  .00002208  00000+0  16702-3 0  9998
2 46070  53.0558 213.1003 0001285  87.5242 272.5894 15.06411599305409
STARLINK-1542           
1 46073U 20055AY  26042.73472793  .00002034  00000+0  15535-3 0  9998
2 46073  53.0561 213.1337 0001386  80.8353 279.2793 15.06409395305398
STARLINK-1549           
1 46074U 20055AZ  26042.71998574  .00002173  00000+0  16472-3 0  9992
2 46074  53.0569 213.2004 0001477 103.6868 256.4285 15.06404368305382
STARLINK-1551           
1 46075U 20055BA  26042.67944451  .00000789  00000+0  71870-4 0  9998
2 46075  53.0560 213.3827 0001334  90.3700 269.7442 15.06404844305388
STARLINK-1552           
1 46076U 20055BB  26042.83794787 -.00001416  00000+0 -76213-4 0  9998
2 46076  53.0555 212.6686 0001465 114.5252 245.5889 15.06400021305395
STARLINK-1559           
1 46077U 20055BC  26042.72940029  .00056012  00000+0  20776-2 0  9990
2 46077  53.0274 194.5518 0001704 262.4732  97.6073 15.27084799305617
STARLINK-1566           
1 46079U 20055BE  26042.79002332  .00000310  00000+0  39678-4 0  9998
2 46079  53.0553 212.8847 0001330 103.9264 256.1873 15.06402873305403
STARLINK-1568           
1 46080U 20055BF  26042.62002327  .00034847  00000+0  75554-3 0  9990
2 46080  53.0622 157.1176 0003198  60.5359 299.5965 15.44104173306166
STARLINK-1578           
1 46082U 20055BH  26042.73841152 -.00007964  00000+0 -51599-3 0  9996
2 46082  53.0553 213.1144 0001049 107.8597 252.2506 15.06428159305393
STARLINK-1579           
1 46083U 20055BJ  26042.84068557 -.00001624  00000+0 -90139-4 0  9990
2 46083  53.0561 212.6462 0001562 115.9002 244.2149 15.06397693305405
