[{"OBJECT_NAME":"STARLINK-1570","OBJECT_ID":"2020-055AJ","EPOCH":"2026-02-11T21:55:27.030720","MEAN_MOTION":15.06404958,"ECCENTRICITY":0.00014223,"INCLINATION":53.0559,"RA_OF_ASC_NODE":232.3341,"ARG_OF_PERICENTER":86.1238,"MEAN_ANOMALY":273.9914,"EPHEMERIS_TYPE":0,"CLASSIFICATION_TYPE":"U","NORAD_CAT_ID":46059,"ELEMENT_SET_NO":999,"REV_AT_EPOCH":30510,"BSTAR":4.83756e-6,"MEAN_MOTION_DOT":-2.09e-6,"MEAN_MOTION_DDOT":0},{"OBJECT_NAME":"STARLINK-1572","OBJECT_ID":"2020-055AK","EPOCH":"2026-02-11T20:14:35.636064","MEAN_MOTION":15.06407943,"ECCENTRICITY":0.00013729,"INCLINATION":53.0557,"RA_OF_ASC_NODE":232.6454,"ARG_OF_PERICENTER":92.1038,"MEAN_ANOMALY":268.0109,"EPHEMERIS_TYPE":0,"CLASSIFICATION_TYPE":"U","NORAD_CAT_ID":46060,"ELEMENT_SET_NO":999,"REV_AT_EPOCH":30510,"BSTAR":0.00016224398,"MEAN_MOTION_DOT":2.136e-5,"MEAN_MOTION_DDOT":0},{"OBJECT_NAME":"STARLINK-1573","OBJECT_ID":"2020-055AL","EPOCH":"2026-02-11T21:44:50.884800","MEAN_MOTION":15.06401105,"ECCENTRICITY":0.00013989,"INCLINATION":53.0542,"RA_OF_ASC_NODE":232.4028,"ARG_OF_PERICENTER":83.1285,"MEAN_ANOMALY":276.9863,"EPHEMERIS_TYPE":0,"CLASSIFICATION_TYPE":"U","NORAD_CAT_ID":46061,"ELEMENT_SET_NO":999,"REV_AT_EPOCH":30514,"BSTAR":4.6604574e-5,"MEAN_MOTION_DOT":4.13e-6,"MEAN_MOTION_DDOT":0},{"OBJECT_NAME":"STARLINK-1577","OBJECT_ID":"2020-055AN","EPOCH":"2026-02-11T22:21:57.893184","MEAN_MOTION":15.06414367,"ECCENTRICITY":0.00015046,"INCLINATION":53.0558,"RA_OF_ASC_NODE":232.2466,"ARG_OF_PERICENTER":79.8627,"MEAN_ANOMALY":280.2532,"EPHEMERIS_TYPE":0,"CLASSIFICATION_TYPE":"U","NORAD_CAT_ID":46063,"ELEMENT_SET_NO":999,"REV_AT_EPOCH":30514,"BSTAR":0.00016199034,"MEAN_MOTION_DOT":2.133e-5,"MEAN_MOTION_DDOT":0},{"OBJECT_NAME":"STARLINK-1583","OBJECT_ID":"2020-055AP","EPOCH":"2026-02-11T21:34:13.373760","MEAN_MOTION":15.06400005,"ECCENTRICITY":0.00014154,"INCLINATION":53.0559,"RA_OF_ASC_NODE":232.3972,"ARG_OF_PERICENTER":91.2597,"MEAN_ANOMALY":268.8554,"EPHEMERIS_TYPE":0,"CLASSIFICATION_TYPE":"U","NORAD_CAT_ID":46064,"ELEMENT_SET_NO":999,"REV_AT_EPOCH":30514,"BSTAR":6.4274949e-5,"MEAN_MOTION_DOT":6.76e-6,"MEAN_MOTION_DDOT":0},{"OBJECT_NAME":"STARLINK-1525","OBJECT_ID":"2020-055AR","EPOCH":"2026-02-11T18:20:29.524704","MEAN_MOTION":15.06384485,"ECCENTRICITY":0.00012906,"INCLINATION":53.0558,"RA_OF_ASC_NODE":213.0011,"ARG_OF_PERICENTER":96.3119,"MEAN_ANOMALY":263.8018,"EPHEMERIS_TYPE":0,"CLASSIFICATION_TYPE":"U","NORAD_CAT_ID":46066,"ELEMENT_SET_NO":999,"REV_AT_EPOCH":30539,"BSTAR":0.00014183466,"MEAN_MOTION_DOT":1.831e-5,"MEAN_MOTION_DDOT":0},{"OBJECT_NAME":"STARLINK-1536","OBJECT_ID":"2020-055AV","EPOCH":"2026-02-11T17:48:37.131552","MEAN_MOTION":15.06411599,"ECCENTRICITY":0.00012852,"INCLINATION":53.0558,"RA_OF_ASC_NODE":213.1003,"ARG_OF_PERICENTER":87.5242,"MEAN_ANOMALY":272.5894,"EPHEMERIS_TYPE":0,"CLASSIFICATION_TYPE":"U","NORAD_CAT_ID":46070,"ELEMENT_SET_NO":999,"REV_AT_EPOCH":30540,"BSTAR":0.00016701751,"MEAN_MOTION_DOT":2.208e-5,"MEAN_MOTION_DDOT":0},{"OBJECT_NAME":"STARLINK-1542","OBJECT_ID":"2020-055AY","EPOCH":"2026-02-11T17:38:00.493152","MEAN_MOTION":15.06409395,"ECCENTRICITY":0.00013864,"INCLINATION":53.0561,"RA_OF_ASC_NODE":213.1337,"ARG_OF_PERICENTER":80.8353,"MEAN_ANOMALY":279.2793,"EPHEMERIS_TYPE":0,"CLASSIFICATION_TYPE":"U","NORAD_CAT_ID":46073,"ELEMENT_SET_NO":999,"REV_AT_EPOCH":30539,"BSTAR":0.00015534881,"MEAN_MOTION_DOT":2.034e-5,"MEAN_MOTION_DDOT":0},{"OBJECT_NAME":"STARLINK-1549","OBJECT_ID":"2020-055AZ","EPOCH":"2026-02-11T17:16:46.767936","MEAN_MOTION":15.06404368,"ECCENTRICITY":0.00014777,"INCLINATION":53.0569,"RA_OF_ASC_NODE":213.2004,"ARG_OF_PERICENTER":103.6868,"MEAN_ANOMALY":256.4285,"EPHEMERIS_TYPE":0,"CLASSIFICATION_TYPE":"U","NORAD_CAT_ID":46074,"ELEMENT_SET_NO":999,"REV_AT_EPOCH":30538,"BSTAR":0.00016472292,"MEAN_MOTION_DOT":2.173e-5,"MEAN_MOTION_DDOT":0},{"OBJECT_NAME":"STARLINK-1551","OBJECT_ID":"2020-055BA","EPOCH":"2026-02-11T16:18:24.005664","MEAN_MOTION":15.06404844,"ECCENTRICITY":0.00013348,"INCLINATION":53.056,"RA_OF_ASC_NODE":213.3827,"ARG_OF_PERICENTER":90.37,"MEAN_ANOMALY":269.7442,"EPHEMERIS_TYPE":0,"CLASSIFICATION_TYPE":"U","NORAD_CAT_ID":46075,"ELEMENT_SET_NO":999,"REV_AT_EPOCH":30538,"BSTAR":7.1870283e-5,"MEAN_MOTION_DOT":7.89e-6,"MEAN_MOTION_DDOT":0},{"OBJECT_NAME":"STARLINK-1552","OBJECT_ID":"2020-055BB","EPOCH":"2026-02-11T20:06:38.695968","MEAN_MOTION":15.06400021,"ECCENTRICITY":0.00014651,"INCLINATION":53.0555,"RA_OF_ASC_NODE":212.6686,"ARG_OF_PERICENTER":114.5252,"MEAN_ANOMALY":245.5889,"EPHEMERIS_TYPE":0,"CLASSIFICATION_TYPE":"U","NORAD_CAT_ID":46076,"ELEMENT_SET_NO":999,"REV_AT_EPOCH":30539,"BSTAR":-7.6213428e-5,"MEAN_MOTION_DOT":-1.416e-5,"MEAN_MOTION_DDOT":0},{"OBJECT_NAME":"STARLINK-1559","OBJECT_ID":"2020-055BC","EPOCH":"2026-02-11T17:30:20.185056","MEAN_MOTION":15.27084799,"ECCENTRICITY":0.00017041,"INCLINATION":53.0274,"RA_OF_ASC_NODE":194.5518,"ARG_OF_PERICENTER":262.4732,"MEAN_ANOMALY":97.6073,"EPHEMERIS_TYPE":0,"CLASSIFICATION_TYPE":"U","NORAD_CAT_ID":46077,"ELEMENT_SET_NO":999,"REV_AT_EPOCH":30561,"BSTAR":0.0020776003,"MEAN_MOTION_DOT":0.00056012,"MEAN_MOTION_DDOT":0},{"OBJECT_NAME":"STARLINK-1566","OBJECT_ID":"2020-055BE","EPOCH":"2026-02-11T18:57:38.014848","MEAN_MOTION":15.06402873,"ECCENTRICITY":0.00013306,"INCLINATION":53.0553,"RA_OF_ASC_NODE":212.8847,"ARG_OF_PERICENTER":103.9264,"MEAN_ANOMALY":256.1873,"EPHEMERIS_TYPE":0,"CLASSIFICATION_TYPE":"U","NORAD_CAT_ID":46079,"ELEMENT_SET_NO":999,"REV_AT_EPOCH":30540,"BSTAR":3.9678124e-5,"MEAN_MOTION_DOT":3.1e-6,"MEAN_MOTION_DDOT":0},{"OBJECT_NAME":"STARLINK-1568","OBJECT_ID":"2020-055BF","EPOCH":"2026-02-11T14:52:50.010528","MEAN_MOTION":15.44104173,"ECCENTRICITY":0.00031984,"INCLINATION":53.0622,"RA_OF_ASC_NODE":157.1176,"ARG_OF_PERICENTER":60.5359,"MEAN_ANOMALY":299.5965,"EPHEMERIS_TYPE":0,"CLASSIFICATION_TYPE":"U","NORAD_CAT_ID":46080,"ELEMENT_SET_NO":999,"REV_AT_EPOCH":30616,"BSTAR":0.00075553748,"MEAN_MOTION_DOT":0.00034847,"MEAN_MOTION_DDOT":0},{"OBJECT_NAME":"STARLINK-1578","OBJECT_ID":"2020-055BH","EPOCH":"2026-02-11T17:43:18.755328","MEAN_MOTION":15.06428159,"ECCENTRICITY":0.00010492,"INCLINATION":53.0553,"RA_OF_ASC_NODE":213.1144,"ARG_OF_PERICENTER":107.8597,"MEAN_ANOMALY":252.2506,"EPHEMERIS_TYPE":0,"CLASSIFICATION_TYPE":"U","NORAD_CAT_ID":46082,"ELEMENT_SET_NO":999,"REV_AT_EPOCH":30539,"BSTAR":-0.00051599439,"MEAN_MOTION_DOT":-7.964e-5,"MEAN_MOTION_DDOT":0},{"OBJECT_NAME":"STARLINK-1579","OBJECT_ID":"2020-055BJ","EPOCH":"2026-02-11T20:10:35.233248","MEAN_MOTION":15.06397693,"ECCENTRICITY":0.00015629,"INCLINATION":53.0561,"RA_OF_ASC_NODE":212.6462,"ARG_OF_PERICENTER":115.9002,"MEAN_ANOMALY":244.2149,"EPHEMERIS_TYPE":0,"CLASSIFICATION_TYPE":"U","NORAD_CAT_ID":46083,"ELEMENT_SET_NO":999,"REV_AT_EPOCH":30540,"BSTAR":-9.0138703e-5,"MEAN_MOTION_DOT":-1.624e-5,"MEAN_MOTION_DDOT":0}]
